ONEWEB-0311             
1 49097U 21075Y   26009.61699288  .00000016  00000+0  68110-5 0  9997
2 49097  87.9094  37.3744 0002088  99.3787 260.7581 13.17647867212742
ONEWEB-0312             
1 49098U 21075Z   26009.63219084  .00000033  00000+0  52259-4 0  9997
2 49098  87.9084  37.3945 0001854 106.1657 253.9679 13.17649845212726
ONEWEB-0313             
1 49099U 21075AA  26009.63711917 -.00000059  00000+0 -18403-3 0  9992
2 49099  87.9084  37.4005 0001894  96.8778 263.2569 13.17649391212715
ONEWEB-0314             
1 49100U 21075AB  26009.60350396 -.00000020  00000+0 -84627-4 0  9992
2 49100  87.9101  37.3637 0001919 107.3160 252.8182 13.17649804212689
ONEWEB-0315             
1 49101U 21075AC  26009.55897579  .00000398  00000+0  10720-2 0  9993
2 49101  87.8928  22.1399 0002143  93.2571 266.8802 13.12442179214364
ONEWEB-0316             
1 49102U 21075AD  26009.42523809  .00000055  00000+0  10583-3 0  9990
2 49102  87.9177   6.9894 0001852  88.8462 271.2882 13.18684920216286
ONEWEB-0317             
1 49103U 21075AE  26009.55983912  .00000459  00000+0  12521-2 0  9991
2 49103  87.8926  22.1606 0000996  83.2078 276.9163 13.11884063214385
ONEWEB-0318             
1 49104U 21075AF  26009.42193788  .00000029  00000+0  39816-4 0  9993
2 49104  87.9180   6.9780 0002001  92.1960 267.9401 13.18685011216241
